{"fetched_at":"2026-03-30T06:02:59Z","count":15439,"tles":[{"name":"STARLINK-30427","line1":"1 57865U 23144B   26087.68478301 -.00000028  00000+0  84808-5 0  9998","line2":"2 57865  43.0015 177.8220 0000873 257.3546 102.7208 15.27592326140505","category":"Starlink"}]}