{
  "norad_id": 57865,
  "name": "STARLINK-30427",
  "history": [
    {
      "epoch": "2026-03-28T16:26:05.252064",
      "apogee_km": 483.61116613366903,
      "perigee_km": 482.41320948547855,
      "latitude_deg": 3.6825112909745106,
      "longitude_deg": 32.2391689599026,
      "semi_major_axis_km": 6861.149187809574,
      "eccentricity": 8.73e-05,
      "inclination_deg": 43.0015,
      "raan_deg": 177.822,
      "arg_perigee_deg": 257.3546,
      "mean_anomaly_deg": 102.7208,
      "mean_motion_rev_day": 15.27592326
    }
  ]
}